{
  "norad_id": 65511,
  "name": "STARLINK-35124",
  "history": [
    {
      "epoch": "2026-04-16T09:01:10.715808Z",
      "apogee_km": 476.08546749431116,
      "perigee_km": 474.3652735393116,
      "latitude_deg": -5.990570611278034e-05,
      "longitude_deg": 115.86558318704658,
      "height_km": 476.03622996610864,
      "semi_major_axis_km": 6853.362370516811,
      "eccentricity": 0.0001255,
      "inclination_deg": 53.158,
      "raan_deg": 95.6847,
      "arg_perigee_deg": 84.1919,
      "mean_anomaly_deg": 275.9224,
      "mean_motion_rev_day": 15.3019655
    },
    {
      "epoch": "2026-04-17T16:22:14.525184Z",
      "apogee_km": 476.0046388255387,
      "perigee_km": 474.39574938585065,
      "latitude_deg": 3.0234137078337083e-05,
      "longitude_deg": -1.757162288519099,
      "height_km": 476.25633664043886,
      "semi_major_axis_km": 6853.337194105694,
      "eccentricity": 0.00011738,
      "inclination_deg": 53.1582,
      "raan_deg": 89.6153,
      "arg_perigee_deg": 101.3346,
      "mean_anomaly_deg": 258.7787,
      "mean_motion_rev_day": 15.30204982
    },
    {
      "epoch": "2026-04-18T09:36:49.830336Z",
      "apogee_km": 476.15158758284633,
      "perigee_km": 474.2745920602465,
      "latitude_deg": 2.9875979197911012e-05,
      "longitude_deg": 95.55168239831428,
      "height_km": 476.104472983908,
      "semi_major_axis_km": 6853.350089821546,
      "eccentricity": 0.00013694,
      "inclination_deg": 53.1594,
      "raan_deg": 86.2794,
      "arg_perigee_deg": 89.604,
      "mean_anomaly_deg": 270.5118,
      "mean_motion_rev_day": 15.30200663
    },
    {
      "epoch": "2026-04-19T15:23:50.464320Z",
      "apogee_km": 476.56593660428825,
      "perigee_km": 473.85886359124925,
      "latitude_deg": -4.1558484501942815e-05,
      "longitude_deg": 1.8101214959874874,
      "height_km": 476.20478860634256,
      "semi_major_axis_km": 6853.349400097768,
      "eccentricity": 0.0001975,
      "inclination_deg": 53.1609,
      "raan_deg": 80.5137,
      "arg_perigee_deg": 94.0334,
      "mean_anomaly_deg": 266.0892,
      "mean_motion_rev_day": 15.30200894
    },
    {
      "epoch": "2026-04-20T07:04:22.925856Z",
      "apogee_km": 476.5215263708187,
      "perigee_km": 473.9401368433655,
      "latitude_deg": 2.4043024571517757e-05,
      "longitude_deg": 122.9986354114555,
      "height_km": 476.243813480351,
      "semi_major_axis_km": 6853.367831607092,
      "eccentricity": 0.00018833,
      "inclination_deg": 53.1608,
      "raan_deg": 77.4812,
      "arg_perigee_deg": 95.1423,
      "mean_anomaly_deg": 264.9793,
      "mean_motion_rev_day": 15.30194721
    },
    {
      "epoch": "2026-04-21T14:25:26.337792Z",
      "apogee_km": 476.41929937602436,
      "perigee_km": 474.0302174670387,
      "latitude_deg": -1.5828365180548403e-05,
      "longitude_deg": 5.378048499608666,
      "height_km": 476.18695050618487,
      "semi_major_axis_km": 6853.361758421531,
      "eccentricity": 0.0001743,
      "inclination_deg": 53.1615,
      "raan_deg": 71.4124,
      "arg_perigee_deg": 93.1008,
      "mean_anomaly_deg": 267.0192,
      "mean_motion_rev_day": 15.30196755
    },
    {
      "epoch": "2026-04-22T13:56:14.712576Z",
      "apogee_km": 476.367345754531,
      "perigee_km": 474.10984383360574,
      "latitude_deg": -9.010272204011257e-06,
      "longitude_deg": 7.160826960600078,
      "height_km": 476.07022916857363,
      "semi_major_axis_km": 6853.375594794068,
      "eccentricity": 0.0001647,
      "inclination_deg": 53.1602,
      "raan_deg": 66.8624,
      "arg_perigee_deg": 86.651,
      "mean_anomaly_deg": 273.4679,
      "mean_motion_rev_day": 15.30192121
    },
    {
      "epoch": "2026-04-23T13:27:02.404800Z",
      "apogee_km": 476.1864411041779,
      "perigee_km": 474.17403303068477,
      "latitude_deg": 1.0408170264814955e-05,
      "longitude_deg": 8.944867038088018,
      "height_km": 475.8339263303753,
      "semi_major_axis_km": 6853.317237067431,
      "eccentricity": 0.00014682,
      "inclination_deg": 53.1595,
      "raan_deg": 62.3108,
      "arg_perigee_deg": 75.9587,
      "mean_anomaly_deg": 284.1577,
      "mean_motion_rev_day": 15.30211666
    },
    {
      "epoch": "2026-04-24T05:07:34.269312Z",
      "apogee_km": 476.0354067186745,
      "perigee_km": 474.3919732232198,
      "latitude_deg": 2.8948543326483567e-06,
      "longitude_deg": 130.1393210211946,
      "height_km": 476.2574658380638,
      "semi_major_axis_km": 6853.350689970946,
      "eccentricity": 0.0001199,
      "inclination_deg": 53.159,
      "raan_deg": 59.2818,
      "arg_perigee_deg": 100.2124,
      "mean_anomaly_deg": 259.9012,
      "mean_motion_rev_day": 15.30200462
    },
    {
      "epoch": "2026-04-27T05:05:36.339360Z",
      "apogee_km": 464.4740857821389,
      "perigee_km": 461.2410317536651,
      "latitude_deg": 5.520870516794151e-06,
      "longitude_deg": 113.68020814670184,
      "height_km": 465.18172055629327,
      "semi_major_axis_km": 6840.994558767901,
      "eccentricity": 0.0002363,
      "inclination_deg": 53.1612,
      "raan_deg": 45.2869,
      "arg_perigee_deg": 208.4372,
      "mean_anomaly_deg": 151.6502,
      "mean_motion_rev_day": 15.34348081
    },
    {
      "epoch": "2026-04-28T20:00:01.000224Z",
      "apogee_km": 463.7467548324239,
      "perigee_km": 461.93252782714353,
      "latitude_deg": -31.228640191452104,
      "longitude_deg": -145.94922522392503,
      "height_km": 472.53612483286724,
      "semi_major_axis_km": 6840.976641329784,
      "eccentricity": 0.0001326,
      "inclination_deg": 53.1616,
      "raan_deg": 37.7106,
      "arg_perigee_deg": 54.7012,
      "mean_anomaly_deg": 265.2288,
      "mean_motion_rev_day": 15.34354109
    },
    {
      "epoch": "2026-04-29T20:00:01.999008Z",
      "apogee_km": 463.7041604396336,
      "perigee_km": 461.8393287158615,
      "latitude_deg": 53.19328082476336,
      "longitude_deg": -40.128242096282435,
      "height_km": 468.402573396834,
      "semi_major_axis_km": 6840.908744577747,
      "eccentricity": 0.0001363,
      "inclination_deg": 53.1615,
      "raan_deg": 33.0367,
      "arg_perigee_deg": 75.6523,
      "mean_anomaly_deg": 11.124,
      "mean_motion_rev_day": 15.34376952
    },
    {
      "epoch": "2026-04-30T14:00:01.999872Z",
      "apogee_km": 463.7075796708077,
      "perigee_km": 461.972297460572,
      "latitude_deg": -53.26990023763342,
      "longitude_deg": -125.79414336651733,
      "height_km": 482.22873964796514,
      "semi_major_axis_km": 6840.97693856569,
      "eccentricity": 0.00012683,
      "inclination_deg": 53.1609,
      "raan_deg": 29.5307,
      "arg_perigee_deg": 85.8153,
      "mean_anomaly_deg": 186.1176,
      "mean_motion_rev_day": 15.34354009
    },
    {
      "epoch": "2026-05-02T02:20:18.854880Z",
      "apogee_km": 463.19259808134575,
      "perigee_km": 462.3771601933531,
      "latitude_deg": 1.984082369846702e-05,
      "longitude_deg": 127.35468346301688,
      "height_km": 463.7587960696741,
      "semi_major_axis_km": 6840.92187913735,
      "eccentricity": 5.96e-05,
      "inclination_deg": 53.1608,
      "raan_deg": 22.4536,
      "arg_perigee_deg": 100.3466,
      "mean_anomaly_deg": 259.7604,
      "mean_motion_rev_day": 15.34372533
    },
    {
      "epoch": "2026-05-03T20:32:48.191712Z",
      "apogee_km": 463.36632047120474,
      "perigee_km": 461.9885804408841,
      "latitude_deg": 2.3096396904385237e-05,
      "longitude_deg": -155.72348258783822,
      "height_km": 463.41682449322144,
      "semi_major_axis_km": 6840.814450456044,
      "eccentricity": 0.0001007,
      "inclination_deg": 53.1591,
      "raan_deg": 14.2311,
      "arg_perigee_deg": 76.515,
      "mean_anomaly_deg": 283.5965,
      "mean_motion_rev_day": 15.34408677
    },
    {
      "epoch": "2026-05-04T09:03:10.345248Z",
      "apogee_km": 463.3732600786934,
      "perigee_km": 462.0291721859867,
      "latitude_deg": -6.652780561089669e-05,
      "longitude_deg": 13.735832970970337,
      "height_km": 463.34923314351994,
      "semi_major_axis_km": 6840.83821613234,
      "eccentricity": 9.824e-05,
      "inclination_deg": 53.1588,
      "raan_deg": 11.7964,
      "arg_perigee_deg": 67.9712,
      "mean_anomaly_deg": 292.1394,
      "mean_motion_rev_day": 15.34400681
    }
  ]
}